BEIDOU 3 (C01)          
1 36287U 10001A   21334.63587348 -.00000263  00000+0  00000+0 0  9995
2 36287   1.7509  43.6675 0001402  74.8645 320.5496  1.00270653 43529
BEIDOU 5 (C06)          
1 36828U 10036A   21334.29282475 -.00000022  00000+0  00000+0 0  9992
2 36828  54.1798 178.0639 0023514 175.0196 286.9107  1.00255611 41583
BEIDOU 6 (C04)          
1 37210U 10057A   21334.18696490 -.00000093  00000+0  00000+0 0  9993
2 37210   0.8168  44.9899 0007453 161.6769  90.0505  1.00272106 40637
BEIDOU 7 (C07)          
1 37256U 10068A   21334.30945516 -.00000211  00000+0  00000+0 0  9997
2 37256  50.5707 292.0284 0016439 191.2593 164.4322  1.00256089 40141
BEIDOU 8 (C08)          
1 37384U 11013A   21334.66774792 -.00000198  00000+0  00000+0 0  9999
2 37384  60.0074  56.2408 0019457 187.3516 171.5671  1.00262797 39022
BEIDOU 9 (C09)          
1 37763U 11038A   21334.54979928  .00000012  00000+0  00000+0 0  9996
2 37763  54.4665 180.5288 0086113 225.6460 317.0669  1.00276043 38000
BEIDOU 10 (C10)         
1 37948U 11073A   21334.29079813 -.00000156  00000+0  00000+0 0  9996
2 37948  50.6832 291.6535 0077647 218.8601 116.9337  1.00255961 36755
BEIDOU 11 (C05)         
1 38091U 12008A   21334.69614292  .00000075  00000+0  00000+0 0  9994
2 38091   1.9180  71.1873 0004464 265.7155  42.2227  1.00270227 35837
BEIDOU 12 (C11)         
1 38250U 12018A   21333.53927221 -.00000056  00000+0  00000+0 0  9993
2 38250  56.7373   0.1642 0024707 248.9922 207.9165  1.86234347 65368
BEIDOU 13 (C12)         
1 38251U 12018B   21334.10119242 -.00000055  00000+0  00000+0 0  9993
2 38251  56.6562 359.4831 0015667 250.9690 266.9886  1.86234151 65377
BEIDOU 15 (C14)         
1 38775U 12050B   21333.94319155  .00000074  00000+0  00000+0 0  9996
2 38775  55.2900 118.4052 0011481 328.1175 280.9632  1.86231260 62744
BEIDOU 16 (C02)         
1 38953U 12059A   21334.37635160 -.00000158  00000+0  00000+0 0  9992
2 38953   1.4964  84.3759 0010308 274.9103 289.7545  1.00271943 33405
BEIDOU 17 (C31)         
1 40549U 15019A   21334.71803868 -.00000173  00000+0  00000+0 0  9992
2 40549  52.2249 315.0636 0037338 191.4188 277.3657  1.00285704 24446
BEIDOU 18 (C57)         
1 40748U 15037A   21333.57547046 -.00000056  00000+0  00000+0 0  9999
2 40748  55.9155 358.4886 0002345 321.2779 113.9353  1.86233426 43199
BEIDOU 19 (C58)         
1 40749U 15037B   21334.33035626 -.00000056  00000+0  00000+0 0  9991
2 40749  55.9186 358.4525 0005534 292.0135  64.6613  1.86232148 43199
BEIDOU 20 (C18)         
1 40938U 15053A   21334.30692583 -.00000153  00000+0  00000+0 0  9995
2 40938  51.8133 278.1637 0043526 196.2555 159.5680  1.00290680 22705
BEIDOU IGSO-6 (C13)     
1 41434U 16021A   21333.69563075 -.00000174  00000+0  00000+0 0  9990
2 41434  57.8089  54.9149 0044838 213.4094 146.7334  1.00280792 20837
BEIDOU-2 G7 (C03)       
1 41586U 16037A   21334.59692667 -.00000336  00000+0  00000+0 0  9995
2 41586   1.5390  65.5847 0007854   4.0837 325.3458  1.00277962 20146
BEIDOU-3 M1 (C19)       
1 43001U 17069A   21334.28044223  .00000072  00000+0  00000+0 0  9996
2 43001  55.4442 118.3678 0007175 288.1422 343.1461  1.86231649 27680
BEIDOU-3 M2 (C20)       
1 43002U 17069B   21334.08402771  .00000074  00000+0  00000+0 0  9993
2 43002  55.4431 118.4100 0005668 320.7148 222.1271  1.86231336 27670
BEIDOU-3 M3 (C27)       
1 43107U 18003A   21334.11766414 -.00000058  00000+0  00000+0 0  9992
2 43107  55.3612 359.4759 0003243  48.2449 323.1066  1.86232528 26448
BEIDOU-3 M4 (C28)       
1 43108U 18003B   21334.18797014 -.00000059  00000+0  00000+0 0  9991
2 43108  55.3556 359.4646 0004198 245.9622 217.5324  1.86230946 26445
BEIDOU-3 M5 (C21)       
1 43207U 18018A   21333.94348333  .00000075  00000+0  00000+0 0  9993
2 43207  55.4028 118.4996 0003939   1.3453 358.6405  1.86231590 25823
BEIDOU-3 M6 (C22)       
1 43208U 18018B   21334.01021303  .00000074  00000+0  00000+0 0  9997
2 43208  55.4027 118.5024 0005249 304.0576  55.8808  1.86231627 25825
BEIDOU-3 M7 (C29)       
1 43245U 18029A   21333.34706194 -.00000057  00000+0  00000+0 0  9995
2 43245  55.2843 357.2843 0001258 245.8940 239.1076  1.86232616 24961
BEIDOU-3 M8 (C30)       
1 43246U 18029B   21334.16701804 -.00000057  00000+0  10000-3 0  9995
2 43246  55.2827 357.2861 0003634 333.9506  27.1600  1.86232956 24977
BEIDOU IGSO-7 (C16)     
1 43539U 18057A   21334.48521640 -.00000033  00000+0  00000+0 0  9993
2 43539  55.0610 177.4721 0040162 221.3328 318.9780  1.00271051 12518
BEIDOU-3 M9 (C23)       
1 43581U 18062A   21334.22059219  .00000015  00000+0  00000+0 0  9995
2 43581  54.3409 238.9117 0004420 295.2920 312.1784  1.86231916 22713
BEIDOU-3 M10 (C24)      
1 43582U 18062B   21334.07614597  .00000013  00000+0  00000+0 0  9993
2 43582  54.3402 238.9066 0006349 356.3170 245.8700  1.86232429 22718
BEIDOU-3 M11 (C25)      
1 43602U 18067A   21334.01846420  .00000016  00000+0  00000+0 0  9990
2 43602  54.4193 237.5057 0007675   2.0949 243.2363  1.86231564 22206
BEIDOU-3 M12 (C26)      
1 43603U 18067B   21334.14498150  .00000017  00000+0  00000+0 0  9999
2 43603  54.4161 237.4688 0004926 351.6447 248.9297  1.86231466 22224
BEIDOU-3 M13 (C32)      
1 43622U 18072A   21334.27849266  .00000071  00000+0  00000+0 0  9998
2 43622  55.3690 118.0508 0004012 278.4548  81.5270  1.86231605 21744
BEIDOU-3 M14 (C33)      
1 43623U 18072B   21334.00949144  .00000073  00000+0  00000+0 0  9998
2 43623  55.3703 118.0513 0002320 330.1488 299.7147  1.86231620 21737
BEIDOU-3 M15 (C34)      
1 43647U 18078A   21333.49879965 -.00000058  00000+0  10000-3 0  9994
2 43647  55.1793 357.4542 0005984 344.9086 197.8373  1.86233092 21236
BEIDOU-3 M16 (C35)      
1 43648U 18078B   21333.57935545 -.00000058  00000+0  00000+0 0  9996
2 43648  55.1750 357.4588 0003597 351.8603 153.0473  1.86232335 21256
BEIDOU-3 G1 (C59)       
1 43683U 18085A   21334.31582209 -.00000259  00000+0  00000+0 0  9994
2 43683   0.8646 202.6336 0004876  45.8449  74.6748  1.00269599 11415
BEIDOU-3 M17 (C36)      
1 43706U 18093A   21333.51597329  .00000010  00000+0  00000+0 0  9993
2 43706  54.4213 238.8079 0009240 283.2727  76.6766  1.86231754 20618
BEIDOU-3 M18 (C37)      
1 43707U 18093B   21334.16926353  .00000014  00000+0  00000+0 0  9993
2 43707  54.4221 238.7757 0008813 306.1087 222.8677  1.86232239 20614
BEIDOU-3 IGSO-1 (C38)   
1 44204U 19023A   21334.41109486 -.00000233  00000+0  00000+0 0  9992
2 44204  56.2705  55.1221 0023022 191.3218  90.1017  1.00271359  9714
BEIDOU-2 G8             
1 44231U 19027A   21334.55535645 -.00000228  00000+0  00000+0 0  9995
2 44231   0.4177  56.6556 0006929 156.4553 201.0459  1.00272190  9432
BEIDOU-3 IGSO-2 (C39)   
1 44337U 19035A   21334.46362634 -.00000033  00000+0  00000+0 0  9991
2 44337  55.0990 173.5047 0020470 178.0996   3.6195  1.00261518  9053
BEIDOU-3 M23 (C45)      
1 44542U 19061A   21334.25145307  .00000015  00000+0  10000-3 0  9995
2 44542  54.6468 238.8835 0009275 336.1733 200.4378  1.86231618 14870
BEIDOU-3 M24 (C46)      
1 44543U 19061B   21334.01440764  .00000013  00000+0  10000-3 0  9993
2 44543  54.6455 238.8633 0006382 330.4055 318.3296  1.86231994 14867
BEIDOU-3 IGSO-3         
1 44709U 19073A   21334.31146118 -.00000193  00000+0  00000+0 0  9994
2 44709  57.5839 298.4454 0019124 187.2957 175.4889  1.00267296  7816
BEIDOU-3 M21            
1 44793U 19078A   21333.54072436 -.00000058  00000+0  10000-3 0  9992
2 44793  55.0281 357.4987 0005599 355.7493 169.3100  1.86232319 13725
BEIDOU-3 M22            
1 44794U 19078B   21332.07970413 -.00000060  00000+0  00000+0 0  9990
2 44794  55.0029 357.5447 0003614 345.0056 191.7883  1.86232765 13699
BEIDOU-3 M19            
1 44864U 19090A   21334.07782891  .00000073  00000+0  00000+0 0  9998
2 44864  55.3035 118.2789 0014456 263.2774   7.7455  1.86231822 13315
BEIDOU-3 M20            
1 44865U 19090B   21334.07773478  .00000073  00000+0  00000+0 0  9990
2 44865  55.3060 118.3105 0012576 279.6025  81.2548  1.86231793 13292
BEIDOU-3 G2             
1 45344U 20017A   21334.16022466 -.00000127  00000+0  00000+0 0  9999
2 45344   2.2380 342.9171 0001439 195.3295  28.7655  1.00271905  6616
BEIDOU-3 G3             
1 45807U 20040A   21334.52523322 -.00000336  00000+0  00000+0 0  9998
2 45807   1.9022 299.6055 0010641 344.1376  85.4221  1.00266355  5449
